[Satellite]
VERSION=1.1
NAME=PLEIADES 1A
NICKNAME=PLEIADES 1A
TLE1=1 38012U 11076F   15055.47490460  .00000482  00000-0  11356-3 0  9992
TLE2=2 38012  98.2036 131.7015 0001347  95.8522 264.2836 14.58529746169871
